$$SOE
2460721.500000000, A.D. 2025-Feb-15 00:00:00.0000, 7.312151918369700E+07, -2.769448317437093E+08, 1.128422024554556E+08,
2460728.500000000, A.D. 2025-Feb-22 00:00:00.0000, 8.448026058010191E+07, -2.730682332982414E+08, 1.125214696814835E+08,
2460735.500000000, A.D. 2025-Mar-01 00:00:00.0000, 9.569752045490250E+07, -2.687344382146721E+08, 1.120123161734378E+08,
2460742.500000000, A.D. 2025-Mar-08 00:00:00.0000, 1.067533864113390E+08, -2.639475297110077E+08, 1.113142713409892E+08,
2460749.500000000, A.D. 2025-Mar-15 00:00:00.0000, 1.176278649686521E+08, -2.587122356470944E+08, 1.104271023018732E+08,
2460756.500000000, A.D. 2025-Mar-22 00:00:00.0000, 1.283008904764723E+08, -2.530339475456613E+08, 1.093508226598517E+08,
2460763.500000000, A.D. 2025-Mar-29 00:00:00.0000, 1.387523371806426E+08, -2.469187429500632E+08, 1.080857015649610E+08,
2460770.500000000, A.D. 2025-Apr-05 00:00:00.0000, 1.489620349576517E+08, -2.403734079153639E+08, 1.066322732778271E+08,
2460777.500000000, A.D. 2025-Apr-12 00:00:00.0000, 1.589097869905791E+08, -2.334054594497404E+08, 1.049913474141109E+08,
2460784.500000000, A.D. 2025-Apr-19 00:00:00.0000, 1.685753894057358E+08, -2.260231686903878E+08, 1.031640197984722E+08,
2460791.500000000, A.D. 2025-Apr-26 00:00:00.0000, 1.779386533560519E+08, -2.182355849000994E+08, 1.011516838640538E+08,
2460798.500000000, A.D. 2025-May-03 00:00:00.0000, 1.869794298862794E+08, -2.100525601272416E+08, 9.895604255893631E+07,
2460805.500000000, A.D. 2025-May-10 00:00:00.0000, 1.956776378350196E+08, -2.014847743587689E+08, 9.657912071916907E+07,
2460812.500000000, A.D. 2025-May-17 00:00:00.0000, 2.040132950397708E+08, -1.925437610180791E+08, 9.402327785192993E+07,
2460819.500000000, A.D. 2025-May-24 00:00:00.0000, 2.119665532516040E+08, -1.832419326407091E+08, 9.129122124696407E+07,
2460826.500000000, A.D. 2025-May-31 00:00:00.0000, 2.195177374138533E+08, -1.735926061633080E+08, 8.838601933399029E+07,
2460833.500000000, A.D. 2025-Jun-07 00:00:00.0000, 2.266473891385723E+08, -1.636100263400851E+08, 8.531111534415627E+07,
2460840.500000000, A.D. 2025-Jun-14 00:00:00.0000, 2.333363122375114E+08, -1.533093876416836E+08, 8.207034134338488E+07,
2460847.500000000, A.D. 2025-Jun-21 00:00:00.0000, 2.395656217252901E+08, -1.427068575525288E+08, 7.866793213843167E+07,
2460854.500000000, A.D. 2025-Jun-28 00:00:00.0000, 2.453167996035319E+08, -1.318195990982648E+08, 7.510853876908034E+07,
2460861.500000000, A.D. 2025-Jul-05 00:00:00.0000, 2.505717560662676E+08, -1.206657899948118E+08, 7.139724173693404E+07,
2460868.500000000, A.D. 2025-Jul-12 00:00:00.0000, 2.553128950641310E+08, -1.092646387192021E+08, 6.753956383028767E+07,
2460875.500000000, A.D. 2025-Jul-19 00:00:00.0000, 2.595231845145458E+08, -9.763639752209453E+07, 6.354148228460634E+07,
2460882.500000000, A.D. 2025-Jul-26 00:00:00.0000, 2.631862314251772E+08, -8.580237184549838E+07, 5.940944004793495E+07,
2460889.500000000, A.D. 2025-Aug-02 00:00:00.0000, 2.662863619958198E+08, -7.378492549944049E+07, 5.515035592090231E+07,
2460896.500000000, A.D. 2025-Aug-09 00:00:00.0000, 2.688087066485971E+08, -6.160748095279717E+07, 5.077163331400074E+07,
2460903.500000000, A.D. 2025-Aug-16 00:00:00.0000, 2.707392899051751E+08, -4.929451410508249E+07, 4.628116732658920E+07,
2460910.500000000, A.D. 2025-Aug-23 00:00:00.0000, 2.720651251468259E+08, -3.687154279149541E+07, 4.168734981130756E+07,
2460917.500000000, A.D. 2025-Aug-30 00:00:00.0000, 2.727743142221210E+08, -2.436510754072517E+07, 3.699907212084546E+07,
2460924.500000000, A.D. 2025-Sep-06 00:00:00.0000, 2.728561500246935E+08, -1.180274280151559E+07, 3.222572541182621E+07,
2460931.500000000, A.D. 2025-Sep-13 00:00:00.0000, 2.723012197997575E+08, 7.870596412306819E+05, 2.737719810886660E+07,
2460938.500000000, A.D. 2025-Sep-20 00:00:00.0000, 2.711015117270882E+08, 1.337489415321293E+07, 2.246386972698147E+07,
2460945.500000000, A.D. 2025-Sep-27 00:00:00.0000, 2.692505249572096E+08, 2.593049545802432E+07, 1.749660083634726E+07,
2460952.500000000, A.D. 2025-Oct-04 00:00:00.0000, 2.667433800465150E+08, 3.842280475004227E+07, 1.248671903187397E+07,
2460959.500000000, A.D. 2025-Oct-11 00:00:00.0000, 2.635769282111702E+08, 5.082004733814523E+07, 7.446000515918765E+06,
2460966.500000000, A.D. 2025-Oct-18 00:00:00.0000, 2.597498583166634E+08, 6.308982202409969E+07, 2.386646932757013E+06,
2460973.500000000, A.D. 2025-Oct-25 00:00:00.0000, 2.552628002450957E+08, 7.519920258781666E+07, -2.678742819552720E+06,
2460980.500000000, A.D. 2025-Nov-01 00:00:00.0000, 2.501184230780390E+08, 8.711485159557228E+07, -7.737206010940008E+06,
2460987.500000000, A.D. 2025-Nov-08 00:00:00.0000, 2.443215264319462E+08, 9.880314649550273E+07, -1.277545489604167E+07,
2460994.500000000, A.D. 2025-Nov-15 00:00:00.0000, 2.378791233037521E+08, 1.102303177030269E+08, -1.777992103970291E+07,
2461001.500000000, A.D. 2025-Nov-22 00:00:00.0000, 2.308005129623163E+08, 1.213625984004566E+08, -2.273680518995853E+07,
2461008.500000000, A.D. 2025-Nov-29 00:00:00.0000, 2.230973418043998E+08, 1.321663864140791E+08, -2.763213251362566E+07,
2461015.500000000, A.D. 2025-Dec-06 00:00:00.0000, 2.147836479651381E+08, 1.426084170072787E+08, -3.245181280005741E+07,
2461022.500000000, A.D. 2025-Dec-13 00:00:00.0000, 2.058758882941229E+08, 1.526559419237320E+08, -3.718170563742208E+07,
2461029.500000000, A.D. 2025-Dec-20 00:00:00.0000, 1.963929494824482E+08, 1.622769140862594E+08, -4.180769036735836E+07,
2461036.500000000, A.D. 2025-Dec-27 00:00:00.0000, 1.863561407091622E+08, 1.714401786446409E+08, -4.631573994339972E+07,
2461043.500000000, A.D. 2026-Jan-03 00:00:00.0000, 1.757891650356232E+08, 1.801156676073865E+08, -5.069199791995203E+07,
2461050.500000000, A.D. 2026-Jan-10 00:00:00.0000, 1.647180686458658E+08, 1.882745949958246E+08, -5.492285783074729E+07,
2461057.500000000, A.D. 2026-Jan-17 00:00:00.0000, 1.531711675005272E+08, 1.958896498529546E+08, -5.899504407137419E+07,
2461064.500000000, A.D. 2026-Jan-24 00:00:00.0000, 1.411789512093588E+08, 2.029351844138231E+08, -6.289569328413719E+07,
2461071.500000000, A.D. 2026-Jan-31 00:00:00.0000, 1.287739643021012E+08, 2.093873946366063E+08, -6.661243516781008E+07,
2461078.500000000, A.D. 2026-Feb-07 00:00:00.0000, 1.159906655697054E+08, 2.152244902363795E+08, -7.013347159322353E+07,
2461085.500000000, A.D. 2026-Feb-14 00:00:00.0000, 1.028652668043750E+08, 2.204268514754550E+08, -7.344765289894171E+07,
2461092.500000000, A.D. 2026-Feb-21 00:00:00.0000, 8.943555286543527E+07, 2.249771707065010E+08, -7.654455021825391E+07,
2461099.500000000, A.D. 2026-Feb-28 00:00:00.0000, 7.574068397450268E+07, 2.288605774519688E+08, -7.941452254647860E+07,
2461106.500000000, A.D. 2026-Mar-07 00:00:00.0000, 6.182098055271328E+07, 2.320647429727339E+08, -8.204877747178817E+07,
2461113.500000000, A.D. 2026-Mar-14 00:00:00.0000, 4.771769608048645E+07, 2.345799602945988E+08, -8.443942508290979E+07,
2461120.500000000, A.D. 2026-Mar-21 00:00:00.0000, 3.347278278378578E+07, 2.363992013094548E+08, -8.657952419941717E+07,
2461127.500000000, A.D. 2026-Mar-28 00:00:00.0000, 1.912865135505252E+07, 2.375181511190830E+08, -8.846312000723967E+07,
2461134.500000000, A.D. 2026-Apr-04 00:00:00.0000, 4.727927427938605E+06, 2.379352182776087E+08, -9.008527264195575E+07,
2461141.500000000, A.D. 2026-Apr-11 00:00:00.0000, -9.686791564315587E+06, 2.376515206842653E+08, -9.144207648024070E+07,
2461148.500000000, A.D. 2026-Apr-18 00:00:00.0000, -2.407317568723866E+07, 2.366708477038434E+08, -9.253067004432768E+07,
2461155.500000000, A.D. 2026-Apr-25 00:00:00.0000, -3.838939476014752E+07, 2.349995995579882E+08, -9.334923658741444E+07,
2461162.500000000, A.D. 2026-May-02 00:00:00.0000, -5.259434061728159E+07, 2.326467053908660E+08, -9.389699559660505E+07,
2461169.500000000, A.D. 2026-May-09 00:00:00.0000, -6.664783664211662E+07, 2.296235217319953E+08, -9.417418562538148E+07,
2461176.500000000, A.D. 2026-May-16 00:00:00.0000, -8.051083195225886E+07, 2.259437135821323E+08, -9.418203903633244E+07,
2461183.500000000, A.D. 2026-May-23 00:00:00.0000, -9.414557832870950E+07, 2.216231214650691E+08, -9.392274928030780E+07,
2461190.500000000, A.D. 2026-May-30 00:00:00.0000, -1.075157905115385E+08, 2.166796172475583E+08, -9.339943131524758E+07,
2461197.500000000, A.D. 2026-Jun-06 00:00:00.0000, -1.205867891181210E+08, 2.111329480084614E+08, -9.261607627866426E+07,
2461204.500000000, A.D. 2026-Jun-13 00:00:00.0000, -1.333256218878603E+08, 2.050045706998236E+08, -9.157750162892546E+07,
2461211.500000000, A.D. 2026-Jun-20 00:00:00.0000, -1.457011635481459E+08, 1.983174830359845E+08, -9.028929740747374E+07,
2461218.500000000, A.D. 2026-Jun-27 00:00:00.0000, -1.576841961480950E+08, 1.910960526819124E+08, -8.875776942933008E+07,
2461225.500000000, A.D. 2026-Jul-04 00:00:00.0000, -1.692474703419829E+08, 1.833658462099116E+08, -8.698988036232881E+07,
2461232.500000000, A.D. 2026-Jul-11 00:00:00.0000, -1.803657481484282E+08, 1.751534597432610E+08, -8.499318958498353E+07,
2461239.500000000, A.D. 2026-Jul-18 00:00:00.0000, -1.910158281173222E+08, 1.664863531458651E+08, -8.277579263043584E+07,
2461246.500000000, A.D. 2026-Jul-25 00:00:00.0000, -2.011765540984337E+08, 1.573926893577565E+08, -8.034626095056148E+07,
2461253.500000000, A.D. 2026-Aug-01 00:00:00.0000, -2.108288089269503E+08, 1.479011801796093E+08, -7.771358266220434E+07,
2461260.500000000, A.D. 2026-Aug-08 00:00:00.0000, -2.199554942728328E+08, 1.380409395747156E+08, -7.488710486781174E+07,
2461267.500000000, A.D. 2026-Aug-15 00:00:00.0000, -2.285414977559369E+08, 1.278413458016966E+08, -7.187647803494680E+07,
2461274.500000000, A.D. 2026-Aug-22 00:00:00.0000, -2.365736496235951E+08, 1.173319142316951E+08, -6.869160266348703E+07,
2461281.500000000, A.D. 2026-Aug-29 00:00:00.0000, -2.440406728056884E+08, 1.065421798997606E+08, -6.534257846339672E+07,
2461288.500000000, A.D. 2026-Sep-05 00:00:00.0000, -2.509331256926799E+08, 9.550158716196093E+07, -6.183965671646649E+07,
$$EOE